[
  {
    "name": "STARLINK-11727 [DTC]",
    "noradId": "64123",
    "line1": "1 64123U 25111A   26167.86749641  .00140397  00000+0  10798-2 0  9993",
    "line2": "2 64123  43.0005  96.3623 0001974 307.7598  52.3091 15.70827230 62237"
  },
  {
    "name": "STARLINK-11724 [DTC]",
    "noradId": "64124",
    "line1": "1 64124U 25111B   26167.51773449  .00161873  00000+0  12390-2 0  9991",
    "line2": "2 64124  42.9988  98.0244 0001498 275.4062  84.6634 15.70870753 62185"
  },
  {
    "name": "STARLINK-11725 [DTC]",
    "noradId": "64125",
    "line1": "1 64125U 25111C   26167.53364892  .00177318  00000+0  13504-2 0  9991",
    "line2": "2 64125  43.0008  98.1490 0003987 276.9099  83.1315 15.70935072 62182"
  },
  {
    "name": "STARLINK-11717 [DTC]",
    "noradId": "64126",
    "line1": "1 64126U 25111D   26167.09388536  .00194285  00000+0  14768-2 0  9999",
    "line2": "2 64126  43.0003 100.8724 0001628 242.6798 117.3904 15.70931761 62067"
  },
  {
    "name": "STARLINK-11721 [DTC]",
    "noradId": "64127",
    "line1": "1 64127U 25111E   26167.50179458  .00161333  00000+0  12254-2 0  9993",
    "line2": "2 64127  43.0017  97.8903 0003988 275.0816  84.9596 15.71050600 62183"
  },
  {
    "name": "STARLINK-11722 [DTC]",
    "noradId": "64128",
    "line1": "1 64128U 25111F   26167.52304012  .00264604  00000+0  19723-2 0  9995",
    "line2": "2 64128  43.0005  98.0609 0003046 292.8890  67.1656 15.71178073 62131"
  },
  {
    "name": "STARLINK-11679 [DTC]",
    "noradId": "64129",
    "line1": "1 64129U 25111G   26166.93486307  .00166552  00000+0  12739-2 0  9991",
    "line2": "2 64129  42.9987 101.3825 0000735 273.6635  86.4148 15.70872252 62097"
  },
  {
    "name": "STARLINK-11735 [DTC]",
    "noradId": "64130",
    "line1": "1 64130U 25111H   26167.52835679  .00192998  00000+0  14555-2 0  9990",
    "line2": "2 64130  43.0030  98.0999 0001150 331.9519  28.1287 15.71123017 62035"
  },
  {
    "name": "STARLINK-11720 [DTC]",
    "noradId": "64131",
    "line1": "1 64131U 25111J   26167.51243145  .00134910  00000+0  10313-2 0  9999",
    "line2": "2 64131  42.9999  97.9749 0001143  37.0197 323.0750 15.70991576 62132"
  },
  {
    "name": "STARLINK-11718 [DTC]",
    "noradId": "64132",
    "line1": "1 64132U 25111K   26167.10541522  .00143830  00000+0  11020-2 0  9992",
    "line2": "2 64132  42.9992 100.9599 0001044 244.3661 115.7099 15.70907963 62165"
  },
  {
    "name": "STARLINK-11716 [DTC]",
    "noradId": "64133",
    "line1": "1 64133U 25111L   26167.09919352  .00163388  00000+0  12479-2 0  9990",
    "line2": "2 64133  42.9980 100.9101 0001622 255.1805 104.8883 15.70917967 62169"
  },
  {
    "name": "STARLINK-11714 [DTC]",
    "noradId": "64134",
    "line1": "1 64134U 25111M   26167.49648918  .00218414  00000+0  16556-2 0  9993",
    "line2": "2 64134  42.9998  97.8438 0002509 285.3657  74.6934 15.70921107 62185"
  },
  {
    "name": "STARLINK-11712 [DTC]",
    "noradId": "64135",
    "line1": "1 64135U 25111N   26167.10981196  .00218651  00000+0  16602-2 0  9995",
    "line2": "2 64135  42.9999 100.9977 0001447 250.6465 109.4247 15.70880775 62115"
  },
  {
    "name": "STARLINK-34254",
    "noradId": "64136",
    "line1": "1 64136U 25111P   26167.46665906  .00013525  00000+0  49971-3 0  9992",
    "line2": "2 64136  43.0004 239.7238 0004663 275.1213  84.9107 15.27599626 60576"
  },
  {
    "name": "STARLINK-34230",
    "noradId": "64137",
    "line1": "1 64137U 25111Q   26167.83335647  .00173452  18661-4  65821-3 0  9995",
    "line2": "2 64137  42.9810 200.8059 0024173  80.4452 150.7585 15.86502777  6028"
  },
  {
    "name": "STARLINK-34129",
    "noradId": "64138",
    "line1": "1 64138U 25111R   26167.83335647 -.00016495  00000+0 -59098-3 0  9993",
    "line2": "2 64138  42.9995 238.1755 0001550 279.5329  80.1226 15.27592922  5751"
  },
  {
    "name": "STARLINK-34212",
    "noradId": "64139",
    "line1": "1 64139U 25111S   26167.47692636  .00011904  00000+0  44103-3 0  9997",
    "line2": "2 64139  42.9960 239.7950 0000552 163.8320 196.2549 15.27607815 60571"
  },
  {
    "name": "STARLINK-34149",
    "noradId": "64140",
    "line1": "1 64140U 25111T   26166.89874580  .00015888  00000+0  58544-3 0  9993",
    "line2": "2 64140  43.0030 243.1983 0000587 282.4444  77.6342 15.27591453 60484"
  },
  {
    "name": "STARLINK-34054",
    "noradId": "64141",
    "line1": "1 64141U 25111U   26167.48464997  .00011082  00000+0  41152-3 0  9996",
    "line2": "2 64141  43.0003 239.8536 0001456 276.5977  83.4709 15.27587100 60578"
  },
  {
    "name": "STARLINK-34195",
    "noradId": "64142",
    "line1": "1 64142U 25111V   26167.47308521  .00020539  00000+0  75379-3 0  9991",
    "line2": "2 64142  42.9948 239.7660 0003199 108.6023 251.5177 15.27579013 60576"
  },
  {
    "name": "STARLINK-34133",
    "noradId": "64143",
    "line1": "1 64143U 25111W   26167.46922989  .00011360  00000+0  42159-3 0  9993",
    "line2": "2 64143  43.0005 239.7379 0002021 269.2250  90.8370 15.27587513 60572"
  },
  {
    "name": "STARLINK-34181",
    "noradId": "64144",
    "line1": "1 64144U 25111X   26166.90260097  .00024629  00000+0  90154-3 0  9997",
    "line2": "2 64144  42.9923 243.2253 0001752 276.6576  83.4076 15.27579411 60483"
  },
  {
    "name": "STARLINK-34186",
    "noradId": "64145",
    "line1": "1 64145U 25111Y   26167.50006897  .00010192  00000+0  37919-3 0  9991",
    "line2": "2 64145  43.0041 239.9698 0000688 276.2271  83.8502 15.27594650 60577"
  },
  {
    "name": "STARLINK-34314",
    "noradId": "64146",
    "line1": "1 64146U 25112A   26167.69184568  .00008888  00000+0  61893-3 0  9992",
    "line2": "2 64146  97.3533 218.1126 0001158 157.2924 202.8355 15.05666560 58209"
  },
  {
    "name": "STARLINK-33926",
    "noradId": "64147",
    "line1": "1 64147U 25112B   26167.73338068  .00003623  00000+0  25491-3 0  9990",
    "line2": "2 64147  97.3496 218.2081 0001284 130.9523 229.1816 15.05650670 58212"
  },
  {
    "name": "STARLINK-34213",
    "noradId": "64148",
    "line1": "1 64148U 25112C   26167.70013564  .00005192  00000+0  36346-3 0  9993",
    "line2": "2 64148  97.3508 218.0993 0001218 109.2704 250.8655 15.05656061 58205"
  },
  {
    "name": "STARLINK-33924",
    "noradId": "64149",
    "line1": "1 64149U 25112D   26167.70844211  .00002273  00000+0  16142-3 0  9994",
    "line2": "2 64149  97.3507 218.0894 0001989 113.0010 247.1427 15.05656354 58204"
  },
  {
    "name": "STARLINK-34209",
    "noradId": "64150",
    "line1": "1 64150U 25112E   26167.85798197  .00005426  00000+0  37960-3 0  9997",
    "line2": "2 64150  97.3493 218.3441 0002514 138.7836 221.3581 15.05661789 58232"
  },
  {
    "name": "STARLINK-34338",
    "noradId": "64151",
    "line1": "1 64151U 25112F   26167.84968027  .00004180  00000+0  29347-3 0  9994",
    "line2": "2 64151  97.3492 218.3582 0002410 127.1708 232.9740 15.05653417 58237"
  },
  {
    "name": "STARLINK-34348",
    "noradId": "64152",
    "line1": "1 64152U 25112G   26167.68352730  .00004535  00000+0  31804-3 0  9990",
    "line2": "2 64152  97.3510 218.1232 0001528 108.6242 251.5152 15.05658684 58207"
  },
  {
    "name": "STARLINK-34345",
    "noradId": "64153",
    "line1": "1 64153U 25112H   26167.67521867  .00003518  00000+0  24761-3 0  9993",
    "line2": "2 64153  97.3498 218.1360 0001732  97.1197 263.0228 15.05658503 58205"
  },
  {
    "name": "STARLINK-33945",
    "noradId": "64154",
    "line1": "1 64154U 25112J   26167.73397208  .00007011  00000+0  48931-3 0  9998",
    "line2": "2 64154  97.3489 226.6930 0001748  97.1185 263.0241 15.05654746 58768"
  },
  {
    "name": "STARLINK-34346",
    "noradId": "64155",
    "line1": "1 64155U 25112K   26167.86075166  .00003142  00000+0  22161-3 0  9997",
    "line2": "2 64155  97.3513 218.3500 0001980 106.0235 254.1211 15.05658185 58233"
  },
  {
    "name": "STARLINK-34277",
    "noradId": "64156",
    "line1": "1 64156U 25112L   26167.69461367  .00005473  00000+0  38302-3 0  9994",
    "line2": "2 64156  97.3517 218.1202 0001625  81.2017 278.9394 15.05650377 58201"
  },
  {
    "name": "STARLINK-34166",
    "noradId": "64158",
    "line1": "1 64158U 25112N   26167.71120972  .00002123  00000+0  15101-3 0  9994",
    "line2": "2 64158  97.3507 218.0924 0000897 145.1040 215.0247 15.05656307 58206"
  },
  {
    "name": "STARLINK-34344",
    "noradId": "64159",
    "line1": "1 64159U 25112P   26167.70290345  .00002994  00000+0  21132-3 0  9993",
    "line2": "2 64159  97.3499 218.1036 0001200 132.4484 227.6845 15.05659837 58206"
  },
  {
    "name": "STARLINK-34339",
    "noradId": "64160",
    "line1": "1 64160U 25112Q   26167.68629244  .00003801  00000+0  26717-3 0  9998",
    "line2": "2 64160  97.3521 218.1289 0001343 127.4934 232.6416 15.05661009 58200"
  },
  {
    "name": "STARLINK-34341",
    "noradId": "64161",
    "line1": "1 64161U 25112R   26167.73616118  .00009301  00000+0  64755-3 0  9996",
    "line2": "2 64161  97.3496 218.2131 0002076 105.4611 254.6846 15.05661094 58217"
  },
  {
    "name": "STARLINK-34317",
    "noradId": "64162",
    "line1": "1 64162U 25112S   26167.85244530  .00002505  00000+0  17748-3 0  9994",
    "line2": "2 64162  97.3494 218.3623 0001847  97.0565 263.0873 15.05655575 58235"
  },
  {
    "name": "STARLINK-34340",
    "noradId": "64163",
    "line1": "1 64163U 25112T   26167.69736454  .00006579  00000+0  45939-3 0  9996",
    "line2": "2 64163  97.3511 218.1115 0000956 145.8259 214.3030 15.05661310 58207"
  },
  {
    "name": "STARLINK-34263",
    "noradId": "64164",
    "line1": "1 64164U 25112U   26167.68906058  .00004183  00000+0  29369-3 0  9993",
    "line2": "2 64164  97.3531 218.1247 0001785 135.7518 224.3853 15.05655553 58209"
  },
  {
    "name": "STARLINK-33793",
    "noradId": "64165",
    "line1": "1 64165U 25112V   26167.81367183  .00006502  00000+0  45395-3 0  9993",
    "line2": "2 64165  97.3518 218.2631 0001622 109.0406 251.0998 15.05667537 58227"
  }
]